[{"OBJECT_NAME":"STARLINK-31247","OBJECT_ID":"2024-046F","EPOCH":"2026-03-09T12:46:47.618112","MEAN_MOTION":15.30182497,"ECCENTRICITY":0.00011714,"INCLINATION":53.1583,"RA_OF_ASC_NODE":156.2,"ARG_OF_PERICENTER":83.8857,"MEAN_ANOMALY":276.2277,"EPHEMERIS_TYPE":0,"CLASSIFICATION_TYPE":"U","NORAD_CAT_ID":59206,"ELEMENT_SET_NO":999,"REV_AT_EPOCH":11302,"BSTAR":-2.136432e-5,"MEAN_MOTION_DOT":-9.91e-6,"MEAN_MOTION_DDOT":0},{"OBJECT_NAME":"ATLAS F DEB","OBJECT_ID":"1978-047C","EPOCH":"2026-03-09T21:11:22.529760","MEAN_MOTION":12.47735571,"ECCENTRICITY":0.12806369,"INCLINATION":63.6672,"RA_OF_ASC_NODE":306.5337,"ARG_OF_PERICENTER":6.5078,"MEAN_ANOMALY":63.9186,"EPHEMERIS_TYPE":0,"CLASSIFICATION_TYPE":"U","NORAD_CAT_ID":29197,"ELEMENT_SET_NO":999,"REV_AT_EPOCH":74601,"BSTAR":0.094503922,"MEAN_MOTION_DOT":0.00406138,"MEAN_MOTION_DDOT":0}]
